{
  "type": "FeatureCollection",
  "_note": "PLACEHOLDER — hand-approximated (turf planar buffers + union), NOT the real gtri-penguin-fence AEQD/Hausdorff pipeline. Same schema; regenerate with the real pipeline for the true fence. See web/scripts/generate_fixtures.mjs.",
  "aeqd_center": {
    "lat": -77.841845,
    "lon": 166.6912
  },
  "features": [
    {
      "type": "Feature",
      "properties": {
        "name": "launch_point",
        "role": "input"
      },
      "geometry": {
        "type": "Point",
        "coordinates": [
          166.668,
          -77.846
        ]
      }
    },
    {
      "type": "Feature",
      "properties": {
        "name": "ingress_route",
        "role": "input"
      },
      "geometry": {
        "type": "LineString",
        "coordinates": [
          [
            166.668,
            -77.846
          ],
          [
            166.6808,
            -77.843754
          ],
          [
            166.691467,
            -77.841958
          ]
        ]
      }
    },
    {
      "type": "Feature",
      "properties": {
        "name": "region_of_interest",
        "role": "input"
      },
      "geometry": {
        "type": "Polygon",
        "coordinates": [
          [
            [
              166.697867,
              -77.838993
            ],
            [
              166.690563,
              -77.84011
            ],
            [
              166.693353,
              -77.841918
            ],
            [
              166.702381,
              -77.841918
            ],
            [
              166.705171,
              -77.84011
            ],
            [
              166.697867,
              -77.838993
            ]
          ]
        ]
      }
    },
    {
      "type": "Feature",
      "properties": {
        "name": "fence_launch_point",
        "role": "fence"
      },
      "geometry": {
        "type": "Polygon",
        "coordinates": [
          [
            [
              166.676543,
              -77.846
            ],
            [
              166.676525,
              -77.845882
            ],
            [
              166.67647,
              -77.845765
            ],
            [
              166.676379,
              -77.845649
            ],
            [
              166.676252,
              -77.845534
            ],
            [
              166.67609,
              -77.845422
            ],
            [
              166.675893,
              -77.845312
            ],
            [
              166.675662,
              -77.845204
            ],
            [
              166.675398,
              -77.845101
            ],
            [
              166.675103,
              -77.845001
            ],
            [
              166.674778,
              -77.844905
            ],
            [
              166.674423,
              -77.844814
            ],
            [
              166.674041,
              -77.844728
            ],
            [
              166.673633,
              -77.844648
            ],
            [
              166.673201,
              -77.844573
            ],
            [
              166.672746,
              -77.844504
            ],
            [
              166.672271,
              -77.844442
            ],
            [
              166.671778,
              -77.844387
            ],
            [
              166.671269,
              -77.844338
            ],
            [
              166.670746,
              -77.844297
            ],
            [
              166.670211,
              -77.844263
            ],
            [
              166.669667,
              -77.844236
            ],
            [
              166.669115,
              -77.844217
            ],
            [
              166.668559,
              -77.844205
            ],
            [
              166.668,
              -77.844201
            ],
            [
              166.667441,
              -77.844205
            ],
            [
              166.666885,
              -77.844217
            ],
            [
              166.666333,
              -77.844236
            ],
            [
              166.665789,
              -77.844263
            ],
            [
              166.665254,
              -77.844297
            ],
            [
              166.664731,
              -77.844338
            ],
            [
              166.664222,
              -77.844387
            ],
            [
              166.663729,
              -77.844442
            ],
            [
              166.663254,
              -77.844504
            ],
            [
              166.662799,
              -77.844573
            ],
            [
              166.662367,
              -77.844648
            ],
            [
              166.661959,
              -77.844728
            ],
            [
              166.661577,
              -77.844814
            ],
            [
              166.661222,
              -77.844905
            ],
            [
              166.660897,
              -77.845001
            ],
            [
              166.660602,
              -77.845101
            ],
            [
              166.660338,
              -77.845204
            ],
            [
              166.660107,
              -77.845312
            ],
            [
              166.65991,
              -77.845422
            ],
            [
              166.659748,
              -77.845534
            ],
            [
              166.659621,
              -77.845649
            ],
            [
              166.65953,
              -77.845765
            ],
            [
              166.659475,
              -77.845882
            ],
            [
              166.659457,
              -77.846
            ],
            [
              166.659475,
              -77.846118
            ],
            [
              166.65953,
              -77.846235
            ],
            [
              166.659621,
              -77.846351
            ],
            [
              166.659748,
              -77.846466
            ],
            [
              166.65991,
              -77.846578
            ],
            [
              166.660107,
              -77.846688
            ],
            [
              166.660338,
              -77.846796
            ],
            [
              166.660602,
              -77.846899
            ],
            [
              166.660897,
              -77.846999
            ],
            [
              166.661222,
              -77.847095
            ],
            [
              166.661577,
              -77.847186
            ],
            [
              166.661959,
              -77.847272
            ],
            [
              166.662367,
              -77.847352
            ],
            [
              166.662799,
              -77.847427
            ],
            [
              166.663254,
              -77.847496
            ],
            [
              166.663729,
              -77.847558
            ],
            [
              166.664222,
              -77.847613
            ],
            [
              166.664731,
              -77.847662
            ],
            [
              166.665254,
              -77.847703
            ],
            [
              166.665789,
              -77.847737
            ],
            [
              166.666333,
              -77.847764
            ],
            [
              166.666885,
              -77.847783
            ],
            [
              166.667441,
              -77.847795
            ],
            [
              166.668,
              -77.847799
            ],
            [
              166.668559,
              -77.847795
            ],
            [
              166.669115,
              -77.847783
            ],
            [
              166.669667,
              -77.847764
            ],
            [
              166.670211,
              -77.847737
            ],
            [
              166.670746,
              -77.847703
            ],
            [
              166.671269,
              -77.847662
            ],
            [
              166.671778,
              -77.847613
            ],
            [
              166.672271,
              -77.847558
            ],
            [
              166.672746,
              -77.847496
            ],
            [
              166.673201,
              -77.847427
            ],
            [
              166.673633,
              -77.847352
            ],
            [
              166.674041,
              -77.847272
            ],
            [
              166.674423,
              -77.847186
            ],
            [
              166.674778,
              -77.847095
            ],
            [
              166.675103,
              -77.846999
            ],
            [
              166.675398,
              -77.846899
            ],
            [
              166.675662,
              -77.846796
            ],
            [
              166.675893,
              -77.846688
            ],
            [
              166.67609,
              -77.846578
            ],
            [
              166.676252,
              -77.846466
            ],
            [
              166.676379,
              -77.846351
            ],
            [
              166.67647,
              -77.846235
            ],
            [
              166.676525,
              -77.846118
            ],
            [
              166.676543,
              -77.846
            ]
          ]
        ]
      }
    },
    {
      "type": "Feature",
      "properties": {
        "name": "fence_ingress_route",
        "role": "fence"
      },
      "geometry": {
        "type": "Polygon",
        "coordinates": [
          [
            [
              166.683502,
              -77.844451
            ],
            [
              166.694135,
              -77.84266
            ],
            [
              166.694348,
              -77.842622
            ],
            [
              166.694548,
              -77.84258
            ],
            [
              166.694735,
              -77.842537
            ],
            [
              166.694908,
              -77.84249
            ],
            [
              166.695066,
              -77.842442
            ],
            [
              166.695209,
              -77.842391
            ],
            [
              166.695335,
              -77.842339
            ],
            [
              166.695446,
              -77.842285
            ],
            [
              166.695539,
              -77.842229
            ],
            [
              166.695614,
              -77.842173
            ],
            [
              166.695672,
              -77.842115
            ],
            [
              166.695712,
              -77.842057
            ],
            [
              166.695734,
              -77.841998
            ],
            [
              166.695738,
              -77.841939
            ],
            [
              166.695723,
              -77.841881
            ],
            [
              166.69569,
              -77.841822
            ],
            [
              166.695639,
              -77.841764
            ],
            [
              166.69557,
              -77.841707
            ],
            [
              166.695483,
              -77.841651
            ],
            [
              166.695379,
              -77.841597
            ],
            [
              166.695259,
              -77.841544
            ],
            [
              166.695122,
              -77.841492
            ],
            [
              166.69497,
              -77.841443
            ],
            [
              166.694802,
              -77.841396
            ],
            [
              166.694621,
              -77.841351
            ],
            [
              166.694426,
              -77.841309
            ],
            [
              166.694218,
              -77.84127
            ],
            [
              166.693998,
              -77.841233
            ],
            [
              166.693768,
              -77.8412
            ],
            [
              166.693527,
              -77.84117
            ],
            [
              166.693278,
              -77.841143
            ],
            [
              166.693021,
              -77.84112
            ],
            [
              166.692758,
              -77.8411
            ],
            [
              166.692489,
              -77.841084
            ],
            [
              166.692215,
              -77.841072
            ],
            [
              166.691939,
              -77.841064
            ],
            [
              166.69166,
              -77.841059
            ],
            [
              166.691381,
              -77.841058
            ],
            [
              166.691101,
              -77.841062
            ],
            [
              166.690824,
              -77.841069
            ],
            [
              166.690549,
              -77.841079
            ],
            [
              166.690278,
              -77.841094
            ],
            [
              166.690012,
              -77.841112
            ],
            [
              166.689753,
              -77.841134
            ],
            [
              166.689501,
              -77.841159
            ],
            [
              166.689257,
              -77.841188
            ],
            [
              166.689022,
              -77.84122
            ],
            [
              166.688799,
              -77.841255
            ],
            [
              166.678132,
              -77.843052
            ],
            [
              166.678066,
              -77.843063
            ],
            [
              166.665265,
              -77.845309
            ],
            [
              166.665057,
              -77.845348
            ],
            [
              166.664861,
              -77.84539
            ],
            [
              166.664678,
              -77.845435
            ],
            [
              166.664509,
              -77.845482
            ],
            [
              166.664356,
              -77.845531
            ],
            [
              166.664218,
              -77.845582
            ],
            [
              166.664096,
              -77.845635
            ],
            [
              166.663991,
              -77.84569
            ],
            [
              166.663903,
              -77.845745
            ],
            [
              166.663833,
              -77.845802
            ],
            [
              166.66378,
              -77.84586
            ],
            [
              166.663746,
              -77.845919
            ],
            [
              166.66373,
              -77.845977
            ],
            [
              166.663732,
              -77.846036
            ],
            [
              166.663752,
              -77.846095
            ],
            [
              166.663791,
              -77.846153
            ],
            [
              166.663847,
              -77.846211
            ],
            [
              166.663922,
              -77.846268
            ],
            [
              166.664014,
              -77.846323
            ],
            [
              166.664123,
              -77.846377
            ],
            [
              166.664248,
              -77.84643
            ],
            [
              166.66439,
              -77.846481
            ],
            [
              166.664547,
              -77.846529
            ],
            [
              166.664719,
              -77.846576
            ],
            [
              166.664904,
              -77.84662
            ],
            [
              166.665104,
              -77.846661
            ],
            [
              166.665315,
              -77.846699
            ],
            [
              166.665538,
              -77.846735
            ],
            [
              166.665772,
              -77.846767
            ],
            [
              166.666015,
              -77.846796
            ],
            [
              166.666266,
              -77.846822
            ],
            [
              166.666525,
              -77.846844
            ],
            [
              166.666791,
              -77.846863
            ],
            [
              166.667061,
              -77.846877
            ],
            [
              166.667336,
              -77.846888
            ],
            [
              166.667613,
              -77.846896
            ],
            [
              166.667892,
              -77.846899
            ],
            [
              166.668172,
              -77.846899
            ],
            [
              166.668451,
              -77.846894
            ],
            [
              166.668727,
              -77.846886
            ],
            [
              166.669001,
              -77.846874
            ],
            [
              166.669271,
              -77.846859
            ],
            [
              166.669535,
              -77.846839
            ],
            [
              166.669792,
              -77.846816
            ],
            [
              166.670042,
              -77.84679
            ],
            [
              166.670283,
              -77.84676
            ],
            [
              166.670514,
              -77.846727
            ],
            [
              166.670735,
              -77.846691
            ],
            [
              166.683502,
              -77.844451
            ]
          ]
        ]
      }
    },
    {
      "type": "Feature",
      "properties": {
        "name": "fence_region_of_interest",
        "role": "fence"
      },
      "geometry": {
        "type": "Polygon",
        "coordinates": [
          [
            [
              166.704144,
              -77.837174
            ],
            [
              166.703559,
              -77.837091
            ],
            [
              166.70295,
              -77.837016
            ],
            [
              166.702318,
              -77.836949
            ],
            [
              166.701666,
              -77.836892
            ],
            [
              166.700999,
              -77.836844
            ],
            [
              166.700317,
              -77.836805
            ],
            [
              166.699625,
              -77.836776
            ],
            [
              166.698925,
              -77.836756
            ],
            [
              166.69822,
              -77.836746
            ],
            [
              166.697514,
              -77.836746
            ],
            [
              166.696809,
              -77.836756
            ],
            [
              166.696109,
              -77.836776
            ],
            [
              166.695417,
              -77.836805
            ],
            [
              166.694736,
              -77.836844
            ],
            [
              166.694068,
              -77.836892
            ],
            [
              166.693416,
              -77.836949
            ],
            [
              166.692785,
              -77.837016
            ],
            [
              166.692175,
              -77.837091
            ],
            [
              166.69159,
              -77.837174
            ],
            [
              166.684286,
              -77.838292
            ],
            [
              166.683729,
              -77.838383
            ],
            [
              166.683201,
              -77.838482
            ],
            [
              166.682706,
              -77.838588
            ],
            [
              166.682245,
              -77.8387
            ],
            [
              166.681821,
              -77.838819
            ],
            [
              166.681435,
              -77.838944
            ],
            [
              166.681088,
              -77.839073
            ],
            [
              166.680784,
              -77.839207
            ],
            [
              166.680521,
              -77.839345
            ],
            [
              166.680303,
              -77.839487
            ],
            [
              166.68013,
              -77.839631
            ],
            [
              166.680002,
              -77.839777
            ],
            [
              166.679921,
              -77.839925
            ],
            [
              166.679886,
              -77.840073
            ],
            [
              166.679897,
              -77.840222
            ],
            [
              166.679956,
              -77.84037
            ],
            [
              166.68006,
              -77.840517
            ],
            [
              166.680211,
              -77.840662
            ],
            [
              166.680407,
              -77.840805
            ],
            [
              166.683197,
              -77.842613
            ],
            [
              166.683437,
              -77.842753
            ],
            [
              166.683721,
              -77.842889
            ],
            [
              166.684046,
              -77.843021
            ],
            [
              166.684413,
              -77.843148
            ],
            [
              166.684818,
              -77.84327
            ],
            [
              166.685261,
              -77.843385
            ],
            [
              166.68574,
              -77.843495
            ],
            [
              166.686251,
              -77.843597
            ],
            [
              166.686794,
              -77.843692
            ],
            [
              166.687365,
              -77.84378
            ],
            [
              166.687963,
              -77.843859
            ],
            [
              166.688584,
              -77.84393
            ],
            [
              166.689225,
              -77.843992
            ],
            [
              166.689885,
              -77.844045
            ],
            [
              166.690561,
              -77.844088
            ],
            [
              166.691248,
              -77.844122
            ],
            [
              166.691944,
              -77.844147
            ],
            [
              166.692647,
              -77.844162
            ],
            [
              166.693353,
              -77.844167
            ],
            [
              166.702381,
              -77.844167
            ],
            [
              166.703087,
              -77.844162
            ],
            [
              166.70379,
              -77.844147
            ],
            [
              166.704486,
              -77.844122
            ],
            [
              166.705174,
              -77.844088
            ],
            [
              166.705849,
              -77.844045
            ],
            [
              166.706509,
              -77.843992
            ],
            [
              166.707151,
              -77.84393
            ],
            [
              166.707772,
              -77.843859
            ],
            [
              166.708369,
              -77.84378
            ],
            [
              166.70894,
              -77.843692
            ],
            [
              166.709483,
              -77.843597
            ],
            [
              166.709994,
              -77.843495
            ],
            [
              166.710473,
              -77.843385
            ],
            [
              166.710916,
              -77.84327
            ],
            [
              166.711321,
              -77.843148
            ],
            [
              166.711688,
              -77.843021
            ],
            [
              166.712013,
              -77.842889
            ],
            [
              166.712297,
              -77.842753
            ],
            [
              166.712537,
              -77.842613
            ],
            [
              166.715327,
              -77.840805
            ],
            [
              166.715523,
              -77.840662
            ],
            [
              166.715674,
              -77.840517
            ],
            [
              166.715779,
              -77.84037
            ],
            [
              166.715837,
              -77.840222
            ],
            [
              166.715849,
              -77.840073
            ],
            [
              166.715814,
              -77.839925
            ],
            [
              166.715732,
              -77.839777
            ],
            [
              166.715604,
              -77.839631
            ],
            [
              166.715431,
              -77.839487
            ],
            [
              166.715213,
              -77.839345
            ],
            [
              166.714951,
              -77.839207
            ],
            [
              166.714646,
              -77.839073
            ],
            [
              166.714299,
              -77.838944
            ],
            [
              166.713913,
              -77.838819
            ],
            [
              166.713489,
              -77.8387
            ],
            [
              166.713028,
              -77.838588
            ],
            [
              166.712533,
              -77.838482
            ],
            [
              166.712005,
              -77.838383
            ],
            [
              166.711448,
              -77.838292
            ],
            [
              166.704144,
              -77.837174
            ]
          ]
        ]
      }
    },
    {
      "type": "Feature",
      "properties": {
        "name": "fence",
        "role": "fence"
      },
      "geometry": {
        "type": "Polygon",
        "coordinates": [
          [
            [
              166.659457,
              -77.846
            ],
            [
              166.659475,
              -77.846118
            ],
            [
              166.65953,
              -77.846235
            ],
            [
              166.659621,
              -77.846351
            ],
            [
              166.659748,
              -77.846466
            ],
            [
              166.65991,
              -77.846578
            ],
            [
              166.660107,
              -77.846688
            ],
            [
              166.660338,
              -77.846796
            ],
            [
              166.660602,
              -77.846899
            ],
            [
              166.660897,
              -77.846999
            ],
            [
              166.661222,
              -77.847095
            ],
            [
              166.661577,
              -77.847186
            ],
            [
              166.661959,
              -77.847272
            ],
            [
              166.662367,
              -77.847352
            ],
            [
              166.662799,
              -77.847427
            ],
            [
              166.663254,
              -77.847496
            ],
            [
              166.663729,
              -77.847558
            ],
            [
              166.664222,
              -77.847613
            ],
            [
              166.664731,
              -77.847662
            ],
            [
              166.665254,
              -77.847703
            ],
            [
              166.665789,
              -77.847737
            ],
            [
              166.666333,
              -77.847764
            ],
            [
              166.666885,
              -77.847783
            ],
            [
              166.667441,
              -77.847795
            ],
            [
              166.668,
              -77.847799
            ],
            [
              166.668559,
              -77.847795
            ],
            [
              166.669115,
              -77.847783
            ],
            [
              166.669667,
              -77.847764
            ],
            [
              166.670211,
              -77.847737
            ],
            [
              166.670746,
              -77.847703
            ],
            [
              166.671269,
              -77.847662
            ],
            [
              166.671778,
              -77.847613
            ],
            [
              166.672271,
              -77.847558
            ],
            [
              166.672746,
              -77.847496
            ],
            [
              166.673201,
              -77.847427
            ],
            [
              166.673633,
              -77.847352
            ],
            [
              166.674041,
              -77.847272
            ],
            [
              166.674423,
              -77.847186
            ],
            [
              166.674778,
              -77.847095
            ],
            [
              166.675103,
              -77.846999
            ],
            [
              166.675398,
              -77.846899
            ],
            [
              166.675662,
              -77.846796
            ],
            [
              166.675893,
              -77.846688
            ],
            [
              166.67609,
              -77.846578
            ],
            [
              166.676252,
              -77.846466
            ],
            [
              166.676379,
              -77.846351
            ],
            [
              166.67647,
              -77.846235
            ],
            [
              166.676525,
              -77.846118
            ],
            [
              166.676543,
              -77.846
            ],
            [
              166.676525,
              -77.845882
            ],
            [
              166.67647,
              -77.845765
            ],
            [
              166.676414,
              -77.845694
            ],
            [
              166.683502,
              -77.844451
            ],
            [
              166.687432,
              -77.843789
            ],
            [
              166.687963,
              -77.843859
            ],
            [
              166.688584,
              -77.84393
            ],
            [
              166.689225,
              -77.843992
            ],
            [
              166.689885,
              -77.844045
            ],
            [
              166.690561,
              -77.844088
            ],
            [
              166.691248,
              -77.844122
            ],
            [
              166.691944,
              -77.844147
            ],
            [
              166.692647,
              -77.844162
            ],
            [
              166.693353,
              -77.844167
            ],
            [
              166.702381,
              -77.844167
            ],
            [
              166.703087,
              -77.844162
            ],
            [
              166.70379,
              -77.844147
            ],
            [
              166.704486,
              -77.844122
            ],
            [
              166.705174,
              -77.844088
            ],
            [
              166.705849,
              -77.844045
            ],
            [
              166.706509,
              -77.843992
            ],
            [
              166.707151,
              -77.84393
            ],
            [
              166.707772,
              -77.843859
            ],
            [
              166.708369,
              -77.84378
            ],
            [
              166.70894,
              -77.843692
            ],
            [
              166.709483,
              -77.843597
            ],
            [
              166.709994,
              -77.843495
            ],
            [
              166.710473,
              -77.843385
            ],
            [
              166.710916,
              -77.84327
            ],
            [
              166.711321,
              -77.843148
            ],
            [
              166.711688,
              -77.843021
            ],
            [
              166.712013,
              -77.842889
            ],
            [
              166.712297,
              -77.842753
            ],
            [
              166.712537,
              -77.842613
            ],
            [
              166.715327,
              -77.840805
            ],
            [
              166.715523,
              -77.840662
            ],
            [
              166.715674,
              -77.840517
            ],
            [
              166.715779,
              -77.84037
            ],
            [
              166.715837,
              -77.840222
            ],
            [
              166.715849,
              -77.840073
            ],
            [
              166.715814,
              -77.839925
            ],
            [
              166.715732,
              -77.839777
            ],
            [
              166.715604,
              -77.839631
            ],
            [
              166.715431,
              -77.839487
            ],
            [
              166.715213,
              -77.839345
            ],
            [
              166.714951,
              -77.839207
            ],
            [
              166.714646,
              -77.839073
            ],
            [
              166.714299,
              -77.838944
            ],
            [
              166.713913,
              -77.838819
            ],
            [
              166.713489,
              -77.8387
            ],
            [
              166.713028,
              -77.838588
            ],
            [
              166.712533,
              -77.838482
            ],
            [
              166.712005,
              -77.838383
            ],
            [
              166.711448,
              -77.838292
            ],
            [
              166.704144,
              -77.837174
            ],
            [
              166.703559,
              -77.837091
            ],
            [
              166.70295,
              -77.837016
            ],
            [
              166.702318,
              -77.836949
            ],
            [
              166.701666,
              -77.836892
            ],
            [
              166.700999,
              -77.836844
            ],
            [
              166.700317,
              -77.836805
            ],
            [
              166.699625,
              -77.836776
            ],
            [
              166.698925,
              -77.836756
            ],
            [
              166.69822,
              -77.836746
            ],
            [
              166.697514,
              -77.836746
            ],
            [
              166.696809,
              -77.836756
            ],
            [
              166.696109,
              -77.836776
            ],
            [
              166.695417,
              -77.836805
            ],
            [
              166.694736,
              -77.836844
            ],
            [
              166.694068,
              -77.836892
            ],
            [
              166.693416,
              -77.836949
            ],
            [
              166.692785,
              -77.837016
            ],
            [
              166.692175,
              -77.837091
            ],
            [
              166.69159,
              -77.837174
            ],
            [
              166.684286,
              -77.838292
            ],
            [
              166.683729,
              -77.838383
            ],
            [
              166.683201,
              -77.838482
            ],
            [
              166.682706,
              -77.838588
            ],
            [
              166.682245,
              -77.8387
            ],
            [
              166.681821,
              -77.838819
            ],
            [
              166.681435,
              -77.838944
            ],
            [
              166.681088,
              -77.839073
            ],
            [
              166.680784,
              -77.839207
            ],
            [
              166.680521,
              -77.839345
            ],
            [
              166.680303,
              -77.839487
            ],
            [
              166.68013,
              -77.839631
            ],
            [
              166.680002,
              -77.839777
            ],
            [
              166.679921,
              -77.839925
            ],
            [
              166.679886,
              -77.840073
            ],
            [
              166.679897,
              -77.840222
            ],
            [
              166.679956,
              -77.84037
            ],
            [
              166.68006,
              -77.840517
            ],
            [
              166.680211,
              -77.840662
            ],
            [
              166.680407,
              -77.840805
            ],
            [
              166.682689,
              -77.842284
            ],
            [
              166.678132,
              -77.843052
            ],
            [
              166.678066,
              -77.843063
            ],
            [
              166.670945,
              -77.844313
            ],
            [
              166.670746,
              -77.844297
            ],
            [
              166.670211,
              -77.844263
            ],
            [
              166.669667,
              -77.844236
            ],
            [
              166.669115,
              -77.844217
            ],
            [
              166.668559,
              -77.844205
            ],
            [
              166.668,
              -77.844201
            ],
            [
              166.667441,
              -77.844205
            ],
            [
              166.666885,
              -77.844217
            ],
            [
              166.666333,
              -77.844236
            ],
            [
              166.665789,
              -77.844263
            ],
            [
              166.665254,
              -77.844297
            ],
            [
              166.664731,
              -77.844338
            ],
            [
              166.664222,
              -77.844387
            ],
            [
              166.663729,
              -77.844442
            ],
            [
              166.663254,
              -77.844504
            ],
            [
              166.662799,
              -77.844573
            ],
            [
              166.662367,
              -77.844648
            ],
            [
              166.661959,
              -77.844728
            ],
            [
              166.661577,
              -77.844814
            ],
            [
              166.661222,
              -77.844905
            ],
            [
              166.660897,
              -77.845001
            ],
            [
              166.660602,
              -77.845101
            ],
            [
              166.660338,
              -77.845204
            ],
            [
              166.660107,
              -77.845312
            ],
            [
              166.65991,
              -77.845422
            ],
            [
              166.659748,
              -77.845534
            ],
            [
              166.659621,
              -77.845649
            ],
            [
              166.65953,
              -77.845765
            ],
            [
              166.659475,
              -77.845882
            ],
            [
              166.659457,
              -77.846
            ]
          ]
        ]
      }
    }
  ]
}
